TEVEL2-3                
1 63218U 25052J   26068.64540225  .00020365  00000+0  69446-3 0  9991
2 63218  97.3994 324.7775 0004761 105.7353 254.4413 15.30377031 54855
STARLINK-33913          
1 65215U 25176T   26068.47449394  .00024915  00000+0  85110-3 0  9994
2 65215  53.1584 156.1278 0001160  63.2631 296.8489 15.30178168 33053
